CCSDS_OMM_VERS = 2.0
CREATION_DATE  = 
ORIGINATOR     = 

OBJECT_NAME    = SL-16 R/B
OBJECT_ID      = 1993-016B
CENTER_NAME    = EARTH
REF_FRAME      = TEME
TIME_SYSTEM    = UTC
MEAN_ELEMENT_THEORY = SGP/SGP4

EPOCH          = 2025-11-06T10:43:58.848960
MEAN_MOTION    = 14.15278252
ECCENTRICITY   = .0009402
INCLINATION    = 71.0047
RA_OF_ASC_NODE = 114.0251
ARG_OF_PERICENTER = 163.2255
MEAN_ANOMALY   = 196.9181

EPHEMERIS_TYPE = 0
CLASSIFICATION_TYPE = U
NORAD_CAT_ID   = 22566
ELEMENT_SET_NO = 999
REV_AT_EPOCH   = 68473
BSTAR          = -.32243E-4
MEAN_MOTION_DOT = -.11E-5
MEAN_MOTION_DDOT = 0

CCSDS_OMM_VERS = 2.0
CREATION_DATE  = 
ORIGINATOR     = 

OBJECT_NAME    = COSMOS 2242
OBJECT_ID      = 1993-024A
CENTER_NAME    = EARTH
REF_FRAME      = TEME
TIME_SYSTEM    = UTC
MEAN_ELEMENT_THEORY = SGP/SGP4

EPOCH          = 2025-11-06T12:24:20.377728
MEAN_MOTION    = 14.95880636
ECCENTRICITY   = .0016413
INCLINATION    = 82.5222
RA_OF_ASC_NODE = 24.4564
ARG_OF_PERICENTER = 4.9001
MEAN_ANOMALY   = 355.2378

EPHEMERIS_TYPE = 0
CLASSIFICATION_TYPE = U
NORAD_CAT_ID   = 22626
ELEMENT_SET_NO = 999
REV_AT_EPOCH   = 76197
BSTAR          = .26195E-3
MEAN_MOTION_DOT = .2961E-4
MEAN_MOTION_DDOT = 0

CCSDS_OMM_VERS = 2.0
CREATION_DATE  = 
ORIGINATOR     = 

OBJECT_NAME    = SL-16 R/B
OBJECT_ID      = 1993-059B
CENTER_NAME    = EARTH
REF_FRAME      = TEME
TIME_SYSTEM    = UTC
MEAN_ELEMENT_THEORY = SGP/SGP4

EPOCH          = 2025-11-06T14:15:22.502880
MEAN_MOTION    = 14.17202174
ECCENTRICITY   = .0015803
INCLINATION    = 70.9891
RA_OF_ASC_NODE = 270.7053
ARG_OF_PERICENTER = 30.9684
MEAN_ANOMALY   = 329.2368

EPHEMERIS_TYPE = 0
CLASSIFICATION_TYPE = U
NORAD_CAT_ID   = 22803
ELEMENT_SET_NO = 999
REV_AT_EPOCH   = 66209
BSTAR          = .15932E-4
MEAN_MOTION_DOT = -.16E-6
MEAN_MOTION_DDOT = 0

CCSDS_OMM_VERS = 2.0
CREATION_DATE  = 
ORIGINATOR     = 

OBJECT_NAME    = ARIANE 40 R/B
OBJECT_ID      = 1993-061H
CENTER_NAME    = EARTH
REF_FRAME      = TEME
TIME_SYSTEM    = UTC
MEAN_ELEMENT_THEORY = SGP/SGP4

EPOCH          = 2025-11-06T15:41:12.335136
MEAN_MOTION    = 14.32766333
ECCENTRICITY   = .0009629
INCLINATION    = 98.5120
RA_OF_ASC_NODE = 16.8329
ARG_OF_PERICENTER = 290.1631
MEAN_ANOMALY   = 69.8518

EPHEMERIS_TYPE = 0
CLASSIFICATION_TYPE = U
NORAD_CAT_ID   = 22830
ELEMENT_SET_NO = 999
REV_AT_EPOCH   = 67648
BSTAR          = .15789E-3
MEAN_MOTION_DOT = .387E-5
MEAN_MOTION_DDOT = 0

CCSDS_OMM_VERS = 2.0
CREATION_DATE  = 
ORIGINATOR     = 

OBJECT_NAME    = COSMOS 2278
OBJECT_ID      = 1994-023A
CENTER_NAME    = EARTH
REF_FRAME      = TEME
TIME_SYSTEM    = UTC
MEAN_ELEMENT_THEORY = SGP/SGP4

EPOCH          = 2025-11-06T17:58:23.867040
MEAN_MOTION    = 14.14332621
ECCENTRICITY   = .0010294
INCLINATION    = 71.0525
RA_OF_ASC_NODE = 72.3049
ARG_OF_PERICENTER = 225.6526
MEAN_ANOMALY   = 134.3754

EPHEMERIS_TYPE = 0
CLASSIFICATION_TYPE = U
NORAD_CAT_ID   = 23087
ELEMENT_SET_NO = 999
REV_AT_EPOCH   = 62742
BSTAR          = .1315E-3
MEAN_MOTION_DOT = .204E-5
MEAN_MOTION_DDOT = 0

CCSDS_OMM_VERS = 2.0
CREATION_DATE  = 
ORIGINATOR     = 

OBJECT_NAME    = SL-16 R/B
OBJECT_ID      = 1994-023B
CENTER_NAME    = EARTH
REF_FRAME      = TEME
TIME_SYSTEM    = UTC
MEAN_ELEMENT_THEORY = SGP/SGP4

EPOCH          = 2025-11-06T11:57:19.605312
MEAN_MOTION    = 14.14993182
ECCENTRICITY   = .0001737
INCLINATION    = 71.0006
RA_OF_ASC_NODE = 329.5972
ARG_OF_PERICENTER = 175.2298
MEAN_ANOMALY   = 184.8841

EPHEMERIS_TYPE = 0
CLASSIFICATION_TYPE = U
NORAD_CAT_ID   = 23088
ELEMENT_SET_NO = 999
REV_AT_EPOCH   = 62866
BSTAR          = -.84362E-5
MEAN_MOTION_DOT = -.64E-6
MEAN_MOTION_DDOT = 0

CCSDS_OMM_VERS = 2.0
CREATION_DATE  = 
ORIGINATOR     = 

OBJECT_NAME    = SL-16 R/B
OBJECT_ID      = 1994-074B
CENTER_NAME    = EARTH
REF_FRAME      = TEME
TIME_SYSTEM    = UTC
MEAN_ELEMENT_THEORY = SGP/SGP4

EPOCH          = 2025-11-06T13:41:40.761024
MEAN_MOTION    = 14.79225387
ECCENTRICITY   = .000513
INCLINATION    = 97.7250
RA_OF_ASC_NODE = 341.3045
ARG_OF_PERICENTER = 260.4690
MEAN_ANOMALY   = 251.1424

EPHEMERIS_TYPE = 0
CLASSIFICATION_TYPE = U
NORAD_CAT_ID   = 23343
ELEMENT_SET_NO = 999
REV_AT_EPOCH   = 66904
BSTAR          = .10923E-3
MEAN_MOTION_DOT = .762E-5
MEAN_MOTION_DDOT = 0

CCSDS_OMM_VERS = 2.0
CREATION_DATE  = 
ORIGINATOR     = 

OBJECT_NAME    = SL-16 R/B
OBJECT_ID      = 1994-077B
CENTER_NAME    = EARTH
REF_FRAME      = TEME
TIME_SYSTEM    = UTC
MEAN_ELEMENT_THEORY = SGP/SGP4

EPOCH          = 2025-11-06T19:27:04.207104
MEAN_MOTION    = 14.15540102
ECCENTRICITY   = .0003633
INCLINATION    = 70.9819
RA_OF_ASC_NODE = 250.9966
ARG_OF_PERICENTER = 313.2649
MEAN_ANOMALY   = 46.8171

EPHEMERIS_TYPE = 0
CLASSIFICATION_TYPE = U
NORAD_CAT_ID   = 23405
ELEMENT_SET_NO = 999
REV_AT_EPOCH   = 59884
BSTAR          = .16299E-3
MEAN_MOTION_DOT = .271E-5
MEAN_MOTION_DDOT = 0

CCSDS_OMM_VERS = 2.0
CREATION_DATE  = 
ORIGINATOR     = 

OBJECT_NAME    = ARIANE 40+ R/B
OBJECT_ID      = 1995-021B
CENTER_NAME    = EARTH
REF_FRAME      = TEME
TIME_SYSTEM    = UTC
MEAN_ELEMENT_THEORY = SGP/SGP4

EPOCH          = 2025-11-06T16:24:01.540224
MEAN_MOTION    = 14.39651603
ECCENTRICITY   = .0007494
INCLINATION    = 98.4693
RA_OF_ASC_NODE = 18.7008
ARG_OF_PERICENTER = 143.5864
MEAN_ANOMALY   = 7.8037

EPHEMERIS_TYPE = 0
CLASSIFICATION_TYPE = U
NORAD_CAT_ID   = 23561
ELEMENT_SET_NO = 999
REV_AT_EPOCH   = 60154
BSTAR          = .17782E-3
MEAN_MOTION_DOT = .513E-5
MEAN_MOTION_DDOT = 0

CCSDS_OMM_VERS = 2.0
CREATION_DATE  = 
ORIGINATOR     = 

OBJECT_NAME    = SL-16 R/B
OBJECT_ID      = 1995-058B
CENTER_NAME    = EARTH
REF_FRAME      = TEME
TIME_SYSTEM    = UTC
MEAN_ELEMENT_THEORY = SGP/SGP4

EPOCH          = 2025-11-06T17:46:35.151168
MEAN_MOTION    = 14.15475053
ECCENTRICITY   = .0014519
INCLINATION    = 71.0212
RA_OF_ASC_NODE = 78.3802
ARG_OF_PERICENTER = 301.9683
MEAN_ANOMALY   = 58.0028

EPHEMERIS_TYPE = 0
CLASSIFICATION_TYPE = U
NORAD_CAT_ID   = 23705
ELEMENT_SET_NO = 999
REV_AT_EPOCH   = 55045
BSTAR          = .11825E-3
MEAN_MOTION_DOT = .184E-5
MEAN_MOTION_DDOT = 0

